NORAD_CAT_ID,OBJECT_NAME,OBJECT_TYPE,EPOCH,MEAN_MOTION,ECCENTRICITY,INCLINATION,RA_OF_ASC_NODE,ARG_OF_PERICENTER,MEAN_ANOMALY,BSTAR,MEAN_MOTION_DOT,MEAN_MOTION_DDOT,TLE_LINE0,TLE_LINE1,TLE_LINE2,SEMIMAJOR_AXIS,PERIOD,APOGEE,PERIGEE,DECAYED
50198.0,STARLINK-3264,PAYLOAD,2023-02-26 14:34:52,15.08861504,0.0001252,53.2151,169.0063,92.5727,267.5409,0.00041562,6.337e-05,0.0,0 STARLINK-3264,1 50198U 21125AU  23057.60755724  .00006337  00000-0  41562-3 0  9997,2 50198  53.2151 169.0063 0001252  92.5727 267.5409 15.08861504 69128,6917.815,95.436,540.546,538.814,0.0
50198.0,STARLINK-3264,PAYLOAD,2023-02-27 01:42:35,15.08849696,0.0001391,53.2146,166.925,69.5805,290.5336,0.0003299,4.968e-05,0.0,0 STARLINK-3264,1 50198U 21125AU  23058.07124234  .00004968  00000-0  32990-3 0  9998,2 50198  53.2146 166.9250 0001391  69.5805 290.5336 15.08849696 69191,6917.851,95.437,540.678,538.753,0.0
50198.0,STARLINK-3264,PAYLOAD,2023-02-27 09:39:32,15.08829636,0.0001323,53.2151,165.4388,75.0738,285.0401,2.6225e-05,1.29e-06,0.0,0 STARLINK-3264,1 50198U 21125AU  23058.40245502  .00000129  00000-0  26225-4 0  9997,2 50198  53.2151 165.4388 0001323  75.0738 285.0401 15.08829636 69245,6917.912,95.438,540.692,538.862,0.0
50198.0,STARLINK-3264,PAYLOAD,2023-02-27 16:01:03,15.08863922,5.58e-05,53.2145,164.2487,122.2023,237.9023,0.00047074,7.217e-05,0.0,0 STARLINK-3264,1 50198U 21125AU  23058.66739595  .00007217  00000-0  47074-3 0  9994,2 50198  53.2145 164.2487 0000558 122.2023 237.9023 15.08863922 69282,6917.807,95.436,540.058,539.286,0.0
50198.0,STARLINK-3264,PAYLOAD,2023-02-28 06:19:31,15.08844953,0.0001233,53.2141,161.5727,79.9708,280.1423,0.00026414,3.919e-05,0.0,0 STARLINK-3264,1 50198U 21125AU  23059.26356328  .00003919  00000-0  26414-3 0  9990,2 50198  53.2141 161.5727 0001233  79.9708 280.1423 15.08844953 69371,6917.865,95.437,540.583,538.877,0.0
50198.0,STARLINK-3264,PAYLOAD,2023-02-28 12:41:03,15.08859947,0.0001058,53.2144,160.3832,90.3576,269.7538,0.00073424,0.00011423,0.0,0 STARLINK-3264,1 50198U 21125AU  23059.52851746  .00011423  00000-0  73424-3 0  9995,2 50198  53.2144 160.3832 0001058  90.3576 269.7538 15.08859947 69899,6917.819,95.436,540.416,538.953,0.0
50198.0,STARLINK-3264,PAYLOAD,2023-02-28 14:16:26,15.08867458,0.0001117,53.2146,160.0864,77.8195,282.2922,0.00097486,0.00015273,0.0,0 STARLINK-3264,1 50198U 21125AU  23059.59475641  .00015273  00000-0  97486-3 0  9999,2 50198  53.2146 160.0864 0001117  77.8195 282.2922 15.08867458 69428,6917.796,95.436,540.434,538.889,0.0
50198.0,STARLINK-3264,PAYLOAD,2023-03-01 10:56:30,15.0881155,0.0001465,53.2143,156.2203,82.5846,277.5313,6.4019e-05,7.3e-06,0.0,0 STARLINK-3264,1 50198U 21125AU  23060.45590306  .00000730  00000-0  64019-4 0  9991,2 50198  53.2143 156.2203 0001465  82.5846 277.5313 15.08811550 69558,6917.967,95.439,540.846,538.819,0.0
50198.0,STARLINK-3264,PAYLOAD,2023-03-01 14:07:16,15.08799465,0.0001255,53.2152,155.6231,115.9129,244.1992,-0.00022307,-3.832e-05,0.0,0 STARLINK-3264,1 50198U 21125AU  23060.58838568 -.00003832  00000-0 -22307-3 0  9991,2 50198  53.2152 155.6231 0001255 115.9129 244.1992 15.08799465 69579,6918.004,95.44,540.738,539.001,0.0
50198.0,STARLINK-3264,PAYLOAD,2023-03-01 23:39:36,15.08807337,0.0001453,53.2154,153.8385,140.0033,220.1067,0.00065271,0.00010106,0.0,0 STARLINK-3264,1 50198U 21125AU  23060.98583398  .00010106  00000-0  65271-3 0  9990,2 50198  53.2154 153.8385 0001453 140.0033 220.1067 15.08807337 69636,6917.98,95.44,540.85,538.84,0.0
50198.0,STARLINK-3264,PAYLOAD,2023-03-02 17:08:49,15.08883938,0.0001137,53.2151,150.5701,108.0911,252.0205,0.0024077,0.00038285,0.0,0 STARLINK-3264,1 50198U 21125AU  23061.71446672  .00038285  00000-0  24077-2 0  9991,2 50198  53.2151 150.5701 0001137 108.0911 252.0205 15.08883938 70223,6917.746,95.435,540.398,538.825,0.0
50198.0,STARLINK-3264,PAYLOAD,2023-03-03 09:02:40,15.08898286,0.0001265,53.2156,147.5961,101.1292,258.9843,0.0026234,0.00041778,0.0,0 STARLINK-3264,1 50198U 21125AU  23062.37685622  .00041778  00000-0  26234-2 0  9992,2 50198  53.2156 147.5961 0001265 101.1292 258.9843 15.08898286 69841,6917.702,95.434,540.442,538.692,0.0
50198.0,STARLINK-3264,PAYLOAD,2023-03-03 10:38:03,15.08901744,0.0001081,53.216,147.2993,94.9104,265.2012,0.0028622,0.00045636,0.0,0 STARLINK-3264,1 50198U 21125AU  23062.44309442  .00045636  00000-0  28622-2 0  9993,2 50198  53.2160 147.2993 0001081  94.9104 265.2012 15.08901744 70334,6917.692,95.434,540.304,538.809,0.0
50198.0,STARLINK-3264,PAYLOAD,2023-03-03 16:59:34,15.08920491,0.0001319,53.2156,146.1092,108.8721,251.2414,0.0030003,0.00047892,0.0,0 STARLINK-3264,1 50198U 21125AU  23062.70804267  .00047892  00000-0  30003-2 0  9999,2 50198  53.2156 146.1092 0001319 108.8721 251.2414 15.08920491 70376,6917.634,95.432,540.412,538.587,0.0
50198.0,STARLINK-3264,PAYLOAD,2023-03-04 05:42:40,15.08854023,0.0001222,53.2158,143.7307,126.5447,233.5658,0.00075442,0.00011744,0.0,0 STARLINK-3264,1 50198U 21125AU  23063.23796815  .00011744  00000-0  75442-3 0  9991,2 50198  53.2158 143.7307 0001222 126.5447 233.5658 15.08854023 69979,6917.838,95.437,540.548,538.857,0.0
50198.0,STARLINK-3264,PAYLOAD,2023-03-04 10:28:49,15.08862483,0.000142,53.216,142.839,136.5731,223.5373,0.0025471,0.00040507,0.0,0 STARLINK-3264,1 50198U 21125AU  23063.43668844  .00040507  00000-0  25471-2 0  9998,2 50198  53.2160 142.8390 0001420 136.5731 223.5373 15.08862483 70481,6917.812,95.436,540.659,538.694,0.0
50198.0,STARLINK-3264,PAYLOAD,2023-03-04 21:36:32,15.0883656,0.000148,53.2168,140.7576,97.0388,263.0772,0.00063327,9.804e-05,0.0,0 STARLINK-3264,1 50198U 21125AU  23063.90037240  .00009804  00000-0  63327-3 0  9998,2 50198  53.2168 140.7576 0001480  97.0388 263.0772 15.08836560 70071,6917.891,95.438,540.78,538.732,0.0
50198.0,STARLINK-3264,PAYLOAD,2023-03-05 08:44:14,15.08843133,8.74e-05,53.2165,138.6761,100.4571,259.652,0.0017935,0.00028373,0.0,0 STARLINK-3264,1 50198U 21125AU  23064.36405561  .00028373  00000-0  17935-2 0  9999,2 50198  53.2165 138.6761 0000874 100.4571 259.6520 15.08843133 70626,6917.871,95.437,540.34,539.131,0.0
50198.0,STARLINK-3264,PAYLOAD,2023-03-05 21:27:19,15.08851098,9.81e-05,53.2162,136.2979,99.2261,260.8842,0.001732,0.00027393,0.0,0 STARLINK-3264,1 50198U 21125AU  23064.89397772  .00027393  00000-0  17320-2 0  9990,2 50198  53.2162 136.2979 0000981  99.2261 260.8842 15.08851098 70224,6917.846,95.437,540.39,539.033,0.0
50198.0,STARLINK-3264,PAYLOAD,2023-03-06 10:10:24,15.08861348,0.000125,53.2165,133.9194,109.3086,250.8041,0.0010938,0.00017173,0.0,0 STARLINK-3264,1 50198U 21125AU  23065.42389370  .00017173  00000-0  10938-2 0  9998,2 50198  53.2165 133.9194 0001250 109.3086 250.8041 15.08861348 70306,6917.815,95.436,540.545,538.815,0.0
50198.0,STARLINK-3264,PAYLOAD,2023-03-06 14:56:33,15.0888372,0.0001128,53.2165,133.0265,106.7882,253.3234,0.0016637,0.00026321,0.0,0 STARLINK-3264,1 50198U 21125AU  23065.62260633  .00026321  00000-0  16637-2 0  9997,2 50198  53.2165 133.0265 0001128 106.7882 253.3234 15.08883720 70338,6917.747,95.435,540.392,538.831,0.0
50198.0,STARLINK-3264,PAYLOAD,2023-03-06 21:18:06,15.08861342,0.0001686,53.2151,131.8364,82.131,277.9873,0.00097933,0.00015341,0.0,0 STARLINK-3264,1 50198U 21125AU  23065.88757113  .00015341  00000-0  97933-3 0  9998,2 50198  53.2151 131.8364 0001686  82.1310 277.9873 15.08861342 70855,6917.815,95.436,540.846,538.514,0.0
50198.0,STARLINK-3264,PAYLOAD,2023-03-07 21:08:53,15.08831715,0.0001042,53.2149,127.3759,111.7753,248.335,0.00021133,3.076e-05,0.0,0 STARLINK-3264,1 50198U 21125AU  23066.88117868  .00003076  00000-0  21133-3 0  9997,2 50198  53.2149 127.3759 0001042 111.7753 248.3350 15.08831715 71007,6917.906,95.438,540.492,539.05,0.0
50198.0,STARLINK-3264,PAYLOAD,2023-03-08 09:51:59,15.08848938,0.0001379,53.2139,124.9971,101.7802,258.3345,0.0027317,0.00043466,0.0,0 STARLINK-3264,1 50198U 21125AU  23067.41110385  .00043466  00000-0  27317-2 0  9990,2 50198  53.2139 124.9971 0001379 101.7802 258.3345 15.08848938 70607,6917.853,95.437,540.672,538.764,0.0
50198.0,STARLINK-3264,PAYLOAD,2023-03-08 20:59:41,15.08852921,0.0001872,53.2136,122.9162,77.1528,282.9673,0.0034595,0.00055222,0.0,0 STARLINK-3264,1 50198U 21125AU  23067.87478783  .00055222  00000-0  34595-2 0  9998,2 50198  53.2136 122.9162 0001872  77.1528 282.9673 15.08852921 71158,6917.841,95.437,541.001,538.411,0.0
50198.0,STARLINK-3264,PAYLOAD,2023-03-09 12:53:32,15.08883316,0.000152,53.2144,119.9405,86.9363,273.1803,0.0033069,0.00052799,0.0,0 STARLINK-3264,1 50198U 21125AU  23068.53718023  .00052799  00000-0  33069-2 0  9997,2 50198  53.2144 119.9405 0001520  86.9363 273.1803 15.08883316 70774,6917.748,95.435,540.664,538.561,0.0
50198.0,STARLINK-3264,PAYLOAD,2023-03-09 20:50:27,15.08872343,0.0001094,53.2144,118.4539,99.5399,260.5716,0.0015333,0.0002422,0.0,0 STARLINK-3264,1 50198U 21125AU  23068.86837657  .00024220  00000-0  15333-2 0  9990,2 50198  53.2144 118.4539 0001094  99.5399 260.5716 15.08872343 71302,6917.782,95.436,540.403,538.89,0.0
50198.0,STARLINK-3264,PAYLOAD,2023-03-10 09:33:32,15.08872226,0.000118,53.2143,116.0754,99.4685,260.6441,0.0022053,0.00035015,0.0,0 STARLINK-3264,1 50198U 21125AU  23069.39829370  .00035015  00000-0  22053-2 0  9993,2 50198  53.2143 116.0754 0001180  99.4685 260.6441 15.08872226 70908,6917.782,95.436,540.463,538.831,0.0
50198.0,STARLINK-3264,PAYLOAD,2023-03-11 03:02:47,15.0884927,0.0001605,53.2152,112.8024,98.7863,261.3311,0.0020136,0.00031912,0.0,0 STARLINK-3264,1 50198U 21125AU  23070.12694372  .00031912  00000-0  20136-2 0  9990,2 50198  53.2152 112.8024 0001605  98.7863 261.3311 15.08849270 71014,6917.852,95.437,540.827,538.607,0.0
50198.0,STARLINK-3264,PAYLOAD,2023-03-11 07:48:57,15.08827546,0.000108,53.2159,111.9105,67.2314,292.8793,0.0018469,0.00029218,0.0,0 STARLINK-3264,1 50198U 21125AU  23070.32566635  .00029218  00000-0  18469-2 0  9994,2 50198  53.2159 111.9105 0001080  67.2314 292.8793 15.08827546 71048,6917.918,95.438,540.531,539.036,0.0
